{
    "links": {
        "self": "http://www.neowsapp.com/rest/v1/neo/3943376?api_key=iIulBulltgU6a56xZRHN4H3l9WmuAYTsLGpBGhQ2"
    },
    "id": "3943376",
    "neo_reference_id": "3943376",
    "name": "(2019 YO2)",
    "designation": "2019 YO2",
    "nasa_jpl_url": "http://ssd.jpl.nasa.gov/sbdb.cgi?sstr=3943376",
    "absolute_magnitude_h": 21.6,
    "estimated_diameter": {
        "kilometers": {
            "estimated_diameter_min": 0.1272198785,
            "estimated_diameter_max": 0.2844722965
        },
        "meters": {
            "estimated_diameter_min": 127.2198785394,
            "estimated_diameter_max": 284.4722965033
        },
        "miles": {
            "estimated_diameter_min": 0.0790507431,
            "estimated_diameter_max": 0.1767628354
        },
        "feet": {
            "estimated_diameter_min": 417.3880663071,
            "estimated_diameter_max": 933.3080892598
        }
    },
    "is_potentially_hazardous_asteroid": false,
    "close_approach_data": [
        {
            "close_approach_date": "2019-07-25",
            "close_approach_date_full": "2019-Jul-25 15:58",
            "epoch_date_close_approach": 1564070280000,
            "relative_velocity": {
                "kilometers_per_second": "18.9075966279",
                "kilometers_per_hour": "68067.3478605707",
                "miles_per_hour": "42294.4028970307"
            },
            "miss_distance": {
                "astronomical": "0.4847902051",
                "lunar": "188.5833897839",
                "kilometers": "72523582.079823137",
                "miles": "45064064.2559758106"
            },
            "orbiting_body": "Earth"
        },
        {
            "close_approach_date": "2019-12-15",
            "close_approach_date_full": "2019-Dec-15 05:52",
            "epoch_date_close_approach": 1576389120000,
            "relative_velocity": {
                "kilometers_per_second": "19.0627197862",
                "kilometers_per_hour": "68625.7912304388",
                "miles_per_hour": "42641.3978898246"
            },
            "miss_distance": {
                "astronomical": "0.2936554301",
                "lunar": "114.2319623089",
                "kilometers": "43930226.856893887",
                "miles": "27296977.1912221606"
            },
            "orbiting_body": "Earth"
        },
        {
            "close_approach_date": "2027-12-30",
            "close_approach_date_full": "2027-Dec-30 17:57",
            "epoch_date_close_approach": 1830189420000,
            "relative_velocity": {
                "kilometers_per_second": "28.5718850214",
                "kilometers_per_hour": "102858.7860771739",
                "miles_per_hour": "63912.4496044529"
            },
            "miss_distance": {
                "astronomical": "0.4481433038",
                "lunar": "174.3277451782",
                "kilometers": "67041283.703242906",
                "miles": "41657522.0082318628"
            },
            "orbiting_body": "Earth"
        }
    ],
    "orbital_data": {
        "orbit_id": "7",
        "orbit_determination_date": "2020-08-16 05:55:18",
        "first_observation_date": "2019-12-20",
        "last_observation_date": "2020-01-07",
        "data_arc_in_days": 18,
        "observations_used": 51,
        "orbit_uncertainty": "7",
        "minimum_orbit_intersection": ".204012",
        "jupiter_tisserand_invariant": "3.545",
        "epoch_osculation": "2459000.5",
        "eccentricity": ".4985822089833208",
        "semi_major_axis": "1.938789319219556",
        "inclination": "35.56988231843711",
        "ascending_node_longitude": "95.09297885208336",
        "orbital_period": "986.0395950567153",
        "perihelion_distance": ".9721434576898014",
        "perihelion_argument": "291.3326091632005",
        "aphelion_distance": "2.905435180749311",
        "perihelion_time": "2458772.050399678452",
        "mean_anomaly": "83.40624101512553",
        "mean_motion": ".3650969005755731",
        "equinox": "J2000",
        "orbit_class": {
            "orbit_class_type": "APO",
            "orbit_class_description": "Near-Earth asteroid orbits which cross the Earth’s orbit similar to that of 1862 Apollo",
            "orbit_class_range": "a (semi-major axis) > 1.0 AU; q (perihelion) < 1.017 AU"
        }
    },
    "is_sentry_object": false
}